ORBCOMM FM20            
1 25416U 98046D   25192.37765636  .00000393  00000+0  17807-3 0  9997
2 25416  44.9948  66.7072 0001560  36.4595 323.6359 14.37243629407744
ORBCOMM FM16            
1 25417U 98046E   25192.62260852  .00000660  00000+0  25792-3 0  9995
2 25417  44.9945  56.7963 0005205  59.8802 300.2562 14.38960230407775
ORBCOMM FM15            
1 25418U 98046F   25192.32703041  .00000550  00000+0  22409-3 0  9995
2 25418  44.9977  63.4173 0004852  56.6812 303.4500 14.38600849407721
ORBCOMM FM14            
1 25419U 98046G   25192.61644714  .00000546  00000+0  22111-3 0  9994
2 25419  44.9965  60.2101 0003710  53.1015 307.0173 14.38964508407736
ORBCOMM FM13            
1 25420U 98046H   25192.61286951  .00000506  00000+0  21352-3 0  9993
2 25420  44.9980  68.4420 0005838  38.3107 321.8155 14.37711195406755
ORBCOMM FM21            
1 25475U 98053A   25192.41622877  .00000425  00000+0  18807-3 0  9991
2 25475  45.0071 154.7500 0003386 321.7336  38.3271 14.37382245400736
ORBCOMM FM22            
1 25476U 98053B   25192.29672140  .00000484  00000+0  20351-3 0  9998
2 25476  45.0063 149.9737 0005123 331.7235  28.3335 14.38428722400749
ORBCOMM FM23            
1 25477U 98053C   25192.27488195  .00000427  00000+0  18821-3 0  9998
2 25477  45.0070 157.5089 0004405 323.6172  36.4376 14.37566643400867
